{"type": "FeatureCollection", "features": [ {"type": "Feature", "properties": {"norad_id": 34529, "name": "IRIDIUM 33 DEB", "group": "iridium-33-debris", "lat": 85.48900149148831, "lon": 162.46406998283268, "alt_km": 749.0310311934536, "timestamp": "2025-12-10T23:33:13.203235+00:00", "meta": {"OBJECT_NAME": "IRIDIUM 33 DEB", "OBJECT_ID": "1997-051HW", "EPOCH": "2025-12-10T09:47:19.468608", "MEAN_MOTION": 14.40613002, "ECCENTRICITY": 0.00045041, "INCLINATION": 86.3643, "RA_OF_ASC_NODE": 36.4059, "ARG_OF_PERICENTER": 184.9511, "MEAN_ANOMALY": 175.1644, "EPHEMERIS_TYPE": 0, "CLASSIFICATION_TYPE": "U", "NORAD_CAT_ID": 34529, "ELEMENT_SET_NO": 999, "REV_AT_EPOCH": 88108, "BSTAR": 0.00018099831, "MEAN_MOTION_DOT": 5.97e-06, "MEAN_MOTION_DDOT": 0}, "tle": {"line1": "1 34529U 97051HW  25344.40786422  .00000597  00000+0  18100-3 0  9999", "line2": "2 34529  86.3643  36.4059 0004504 184.9511 175.1644 14.40613002881088"}}, "geometry": {"type": "Point", "coordinates": [162.46406998283268, 85.48900149148831]}}, {"type": "Feature", "properties": {"norad_id": 34538, "name": "IRIDIUM 33 DEB", "group": "iridium-33-debris", "lat": -82.37513221340406, "lon": -22.775639111452254, "alt_km": 744.5114881797717, "timestamp": "2025-12-10T23:33:13.203244+00:00", "meta": {"OBJECT_NAME": "IRIDIUM 33 DEB", "OBJECT_ID": "1997-051JF", "EPOCH": "2025-12-10T12:59:24.609120", "MEAN_MOTION": 14.42626981, "ECCENTRICITY": 0.00330544, "INCLINATION": 86.2772, "RA_OF_ASC_NODE": 6.5186, "ARG_OF_PERICENTER": 335.5091, "MEAN_ANOMALY": 177.0552, "EPHEMERIS_TYPE": 0, "CLASSIFICATION_TYPE": "U", "NORAD_CAT_ID": 34538, "ELEMENT_SET_NO": 999, "REV_AT_EPOCH": 87724, "BSTAR": 0.0013643551, "MEAN_MOTION_DOT": 4.581e-05, "MEAN_MOTION_DDOT": 0}, "tle": {"line1": "1 34538U 97051JF  25344.54125705  .00004581  00000+0  13644-2 0  9999", "line2": "2 34538  86.2772   6.5186 0033054 335.5091 177.0552 14.42626981877242"}}, "geometry": {"type": "Point", "coordinates": [-22.775639111452254, -82.37513221340406]}}, {"type": "Feature", "properties": {"norad_id": 34540, "name": "IRIDIUM 33 DEB", "group": "iridium-33-debris", "lat": 51.15965560240305, "lon": 123.81438858499526, "alt_km": 630.7036113889808, "timestamp": "2025-12-10T23:33:13.203254+00:00", "meta": {"OBJECT_NAME": "IRIDIUM 33 DEB", "OBJECT_ID": "1997-051JH", "EPOCH": "2025-12-10T09:02:54.464064", "MEAN_MOTION": 14.75237983, "ECCENTRICITY": 0.00160091, "INCLINATION": 86.3107, "RA_OF_ASC_NODE": 308.6869, "ARG_OF_PERICENTER": 167.5274, "MEAN_ANOMALY": 353.4924, "EPHEMERIS_TYPE": 0, "CLASSIFICATION_TYPE": "U", "NORAD_CAT_ID": 34540, "ELEMENT_SET_NO": 999, "REV_AT_EPOCH": 88986, "BSTAR": 0.0024707638, "MEAN_MOTION_DOT": 0.00016789, "MEAN_MOTION_DDOT": 0}, "tle": {"line1": "1 34540U 97051JH  25344.37701926  .00016789  00000+0  24708-2 0  9994", "line2": "2 34540  86.3107 308.6869 0016009 167.5274 353.4924 14.75237983889869"}}, "geometry": {"type": "Point", "coordinates": [123.81438858499526, 51.15965560240305]}}, {"type": "Feature", "properties": {"norad_id": 34648, "name": "IRIDIUM 33 DEB", "group": "iridium-33-debris", "lat": -40.46937117726059, "lon": -80.43045293261034, "alt_km": 732.9446317785487, "timestamp": "2025-12-10T23:33:13.203263+00:00", "meta": {"OBJECT_NAME": "IRIDIUM 33 DEB", "OBJECT_ID": "1997-051JZ", "EPOCH": "2025-12-10T13:31:51.923424", "MEAN_MOTION": 14.11387502, "ECCENTRICITY": 0.01834177, "INCLINATION": 86.3907, "RA_OF_ASC_NODE": 282.8249, "ARG_OF_PERICENTER": 305.6711, "MEAN_ANOMALY": 52.7515, "EPHEMERIS_TYPE": 0, "CLASSIFICATION_TYPE": "U", "NORAD_CAT_ID": 34648, "ELEMENT_SET_NO": 999, "REV_AT_EPOCH": 84930, "BSTAR": 0.012722897, "MEAN_MOTION_DOT": 0.00027053, "MEAN_MOTION_DDOT": 0}, "tle": {"line1": "1 34648U 97051JZ  25344.56379541  .00027053  00000+0  12723-1 0  9997", "line2": "2 34648  86.3907 282.8249 0183417 305.6711  52.7515 14.11387502849303"}}, "geometry": {"type": "Point", "coordinates": [-80.43045293261034, -40.46937117726059]}}, {"type": "Feature", "properties": {"norad_id": 34651, "name": "IRIDIUM 33 DEB", "group": "iridium-33-debris", "lat": -72.0079257237292, "lon": 129.7844607006204, "alt_km": 790.9060727839915, "timestamp": "2025-12-10T23:33:13.203273+00:00", "meta": {"OBJECT_NAME": "IRIDIUM 33 DEB", "OBJECT_ID": "1997-051KC", "EPOCH": "2025-12-10T10:25:16.423968", "MEAN_MOTION": 14.25753499, "ECCENTRICITY": 0.01420393, "INCLINATION": 86.2848, "RA_OF_ASC_NODE": 141.558, "ARG_OF_PERICENTER": 211.2926, "MEAN_ANOMALY": 147.9755, "EPHEMERIS_TYPE": 0, "CLASSIFICATION_TYPE": "U", "NORAD_CAT_ID": 34651, "ELEMENT_SET_NO": 999, "REV_AT_EPOCH": 85863, "BSTAR": 0.0053939634, "MEAN_MOTION_DOT": 0.00014272, "MEAN_MOTION_DDOT": 0}, "tle": {"line1": "1 34651U 97051KC  25344.43421787  .00014272  00000+0  53940-2 0  9993", "line2": "2 34651  86.2848 141.5580 0142039 211.2926 147.9755 14.25753499858630"}}, "geometry": {"type": "Point", "coordinates": [129.7844607006204, -72.0079257237292]}}, {"type": "Feature", "properties": {"norad_id": 34652, "name": "IRIDIUM 33 DEB", "group": "iridium-33-debris", "lat": 71.47071515869767, "lon": 149.74841342788505, "alt_km": 697.5351888802443, "timestamp": "2025-12-10T23:33:13.203282+00:00", "meta": {"OBJECT_NAME": "IRIDIUM 33 DEB", "OBJECT_ID": "1997-051KD", "EPOCH": "2025-12-09T11:37:22.959264", "MEAN_MOTION": 14.62008914, "ECCENTRICITY": 0.00262076, "INCLINATION": 86.3314, "RA_OF_ASC_NODE": 341.4507, "ARG_OF_PERICENTER": 310.1115, "MEAN_ANOMALY": 203.3524, "EPHEMERIS_TYPE": 0, "CLASSIFICATION_TYPE": "U", "NORAD_CAT_ID": 34652, "ELEMENT_SET_NO": 999, "REV_AT_EPOCH": 88436, "BSTAR": 0.0015009226, "MEAN_MOTION_DOT": 7.584e-05, "MEAN_MOTION_DDOT": 0}, "tle": {"line1": "1 34652U 97051KD  25343.48429351  .00007584  00000+0  15009-2 0  9995", "line2": "2 34652  86.3314 341.4507 0026207 310.1115 203.3524 14.62008914884363"}}, "geometry": {"type": "Point", "coordinates": [149.74841342788505, 71.47071515869767]}}, {"type": "Feature", "properties": {"norad_id": 34690, "name": "IRIDIUM 33 DEB", "group": "iridium-33-debris", "lat": 14.683467562124337, "lon": 38.706467223770865, "alt_km": 702.6717809528473, "timestamp": "2025-12-10T23:33:13.203291+00:00", "meta": {"OBJECT_NAME": "IRIDIUM 33 DEB", "OBJECT_ID": "1997-051KM", "EPOCH": "2025-12-10T14:17:14.835840", "MEAN_MOTION": 14.55083084, "ECCENTRICITY": 0.00111014, "INCLINATION": 86.378, "RA_OF_ASC_NODE": 37.9232, "ARG_OF_PERICENTER": 36.03, "MEAN_ANOMALY": 117.6753, "EPHEMERIS_TYPE": 0, "CLASSIFICATION_TYPE": "U", "NORAD_CAT_ID": 34690, "ELEMENT_SET_NO": 999, "REV_AT_EPOCH": 88063, "BSTAR": 0.0006672646, "MEAN_MOTION_DOT": 2.9e-05, "MEAN_MOTION_DDOT": 0}, "tle": {"line1": "1 34690U 97051KM  25344.59531060  .00002900  00000+0  66726-3 0  9991", "line2": "2 34690  86.3780  37.9232 0011101  36.0300 117.6753 14.55083084880631"}}, "geometry": {"type": "Point", "coordinates": [38.706467223770865, 14.683467562124337]}}, {"type": "Feature", "properties": {"norad_id": 34693, "name": "IRIDIUM 33 DEB", "group": "iridium-33-debris", "lat": -35.481211320628475, "lon": -57.94146370523735, "alt_km": 490.49963153968383, "timestamp": "2025-12-10T23:33:13.203300+00:00", "meta": {"OBJECT_NAME": "IRIDIUM 33 DEB", "OBJECT_ID": "1997-051KQ", "EPOCH": "2025-12-10T08:38:30.910272", "MEAN_MOTION": 15.27015384, "ECCENTRICITY": 0.00144202, "INCLINATION": 86.3054, "RA_OF_ASC_NODE": 305.0067, "ARG_OF_PERICENTER": 56.9182, "MEAN_ANOMALY": 94.3145, "EPHEMERIS_TYPE": 0, "CLASSIFICATION_TYPE": "U", "NORAD_CAT_ID": 34693, "ELEMENT_SET_NO": 999, "REV_AT_EPOCH": 88878, "BSTAR": 0.0067186448, "MEAN_MOTION_DOT": 0.00182624, "MEAN_MOTION_DDOT": 0}, "tle": {"line1": "1 34693U 97051KQ  25344.36007998  .00182624  00000+0  67186-2 0  9999", "line2": "2 34693  86.3054 305.0067 0014420  56.9182  94.3145 15.27015384888787"}}, "geometry": {"type": "Point", "coordinates": [-57.94146370523735, -35.481211320628475]}}, {"type": "Feature", "properties": {"norad_id": 34696, "name": "IRIDIUM 33 DEB", "group": "iridium-33-debris", "lat": 86.16304417400418, "lon": 112.62286218032855, "alt_km": 663.7422450622889, "timestamp": "2025-12-10T23:33:13.203309+00:00", "meta": {"OBJECT_NAME": "IRIDIUM 33 DEB", "OBJECT_ID": "1997-051KT", "EPOCH": "2025-12-10T13:59:57.596928", "MEAN_MOTION": 14.64908761, "ECCENTRICITY": 0.00741961, "INCLINATION": 86.1846, "RA_OF_ASC_NODE": 28.5251, "ARG_OF_PERICENTER": 174.7781, "MEAN_ANOMALY": 337.5874, "EPHEMERIS_TYPE": 0, "CLASSIFICATION_TYPE": "U", "NORAD_CAT_ID": 34696, "ELEMENT_SET_NO": 999, "REV_AT_EPOCH": 86641, "BSTAR": 0.0079044921, "MEAN_MOTION_DOT": 0.00044251, "MEAN_MOTION_DDOT": 0}, "tle": {"line1": "1 34696U 97051KT  25344.58330552  .00044251  00000+0  79045-2 0  9991", "line2": "2 34696  86.1846  28.5251 0074196 174.7781 337.5874 14.64908761866416"}}, "geometry": {"type": "Point", "coordinates": [112.62286218032855, 86.16304417400418]}}, {"type": "Feature", "properties": {"norad_id": 34765, "name": "IRIDIUM 33 DEB", "group": "iridium-33-debris", "lat": 43.93484478806066, "lon": -150.0199827959866, "alt_km": 751.809697232241, "timestamp": "2025-12-10T23:33:13.203318+00:00", "meta": {"OBJECT_NAME": "IRIDIUM 33 DEB", "OBJECT_ID": "1997-051LJ", "EPOCH": "2025-12-10T09:40:41.988864", "MEAN_MOTION": 14.40455804, "ECCENTRICITY": 0.00152, "INCLINATION": 86.3395, "RA_OF_ASC_NODE": 33.7642, "ARG_OF_PERICENTER": 219.5885, "MEAN_ANOMALY": 160.3366, "EPHEMERIS_TYPE": 0, "CLASSIFICATION_TYPE": "U", "NORAD_CAT_ID": 34765, "ELEMENT_SET_NO": 999, "REV_AT_EPOCH": 87580, "BSTAR": 0.00061829998, "MEAN_MOTION_DOT": 1.986e-05, "MEAN_MOTION_DDOT": 0}, "tle": {"line1": "1 34765U 97051LJ  25344.40326376  .00001986  00000+0  61830-3 0  9990", "line2": "2 34765  86.3395  33.7642 0015200 219.5885 160.3366 14.40455804875800"}}, "geometry": {"type": "Point", "coordinates": [-150.0199827959866, 43.93484478806066]}}]}